ORBCOMM FM115           
1 41186U 15081H   25310.06710078  .00001176  00000+0  26231-3 0  9996
2 41186  46.9982  84.6371 0000984 306.4501  53.6296 14.62803857528548
ORBCOMM FM108           
1 41187U 15081J   25310.26877291  .00000916  00000+0  23185-3 0  9996
2 41187  47.0034 155.8506 0002747 248.9274 111.1319 14.58462786527537
ORBCOMM FM117           
1 41188U 15081K   25309.96103248  .00000792  00000+0  20542-3 0  9992
2 41188  46.9999 156.0208 0003276 256.5466 103.5055 14.58462099527533
ORBCOMM FM116           
1 41189U 15081L   25310.07995457  .00001301  00000+0  31334-3 0  9996
2 41189  47.0022 245.2443 0001089  77.5037 282.5970 14.58541699526368
